{
  "type": "FeatureCollection",
  "features": [
    {
      "type": "Feature",
      "properties": {
        "norad_id": 50032,
        "name": "COSMOS 1408 DEB",
        "group": "cosmos-1408-debris",
        "lat": 63.17047422937938,
        "lon": 67.44763144466904,
        "alt_km": 428.7628533814541,
        "timestamp": "2025-12-18T14:52:08.296259+00:00",
        "meta_object_name": "COSMOS 1408 DEB",
        "meta_object_id": "1982-092RU",
        "meta_epoch": "2025-12-18T05:16:11.049312",
        "meta_mean_motion": 15.45749079,
        "meta_eccentricity": 0.00157679,
        "meta_inclination": 82.5642,
        "meta_ra_of_asc_node": 52.8928,
        "meta_arg_of_pericenter": 187.9166,
        "meta_mean_anomaly": 172.1837,
        "meta_ephemeris_type": 0,
        "meta_classification_type": "U",
        "meta_norad_cat_id": 50032,
        "meta_element_set_no": 999,
        "meta_rev_at_epoch": 22688,
        "meta_bstar": 9.5278906e-05,
        "meta_mean_motion_dot": 4.669e-05,
        "meta_mean_motion_ddot": 0,
        "tle_line1": "1 50032U 82092RU  25352.21957233  .00004669  00000+0  95279-4 0  9990",
        "tle_line2": "2 50032  82.5642  52.8928 0015767 187.9166 172.1837 15.45749079226883"
      },
      "geometry": {
        "type": "Point",
        "coordinates": [
          67.44763144466904,
          63.17047422937938
        ]
      }
    },
    {
      "type": "Feature",
      "properties": {
        "norad_id": 50058,
        "name": "COSMOS 1408 DEB",
        "group": "cosmos-1408-debris",
        "lat": -60.92406580408223,
        "lon": 49.69432723240424,
        "alt_km": 390.4536410849032,
        "timestamp": "2025-12-18T14:52:08.296279+00:00",
        "meta_object_name": "COSMOS 1408 DEB",
        "meta_object_id": "1982-092SW",
        "meta_epoch": "2025-12-18T05:55:20.502048",
        "meta_mean_motion": 15.64432229,
        "meta_eccentricity": 0.00161978,
        "meta_inclination": 82.6132,
        "meta_ra_of_asc_node": 63.5774,
        "meta_arg_of_pericenter": 80.2091,
        "meta_mean_anomaly": 280.0997,
        "meta_ephemeris_type": 0,
        "meta_classification_type": "U",
        "meta_norad_cat_id": 50058,
        "meta_element_set_no": 999,
        "meta_rev_at_epoch": 22890,
        "meta_bstar": 0.0003034941,
        "meta_mean_motion_dot": 0.00029381,
        "meta_mean_motion_ddot": 0,
        "tle_line1": "1 50058U 82092SW  25352.24676507  .00029381  00000+0  30349-3 0  9997",
        "tle_line2": "2 50058  82.6132  63.5774 0016197  80.2091 280.0997 15.64432229228902"
      },
      "geometry": {
        "type": "Point",
        "coordinates": [
          49.69432723240424,
          -60.92406580408223
        ]
      }
    },
    {
      "type": "Feature",
      "properties": {
        "norad_id": 50404,
        "name": "COSMOS 1408 DEB",
        "group": "cosmos-1408-debris",
        "lat": 68.24021926923872,
        "lon": -130.9152686225003,
        "alt_km": 551.9202746314213,
        "timestamp": "2025-12-18T14:52:08.296291+00:00",
        "meta_object_name": "COSMOS 1408 DEB",
        "meta_object_id": "1982-092ADS",
        "meta_epoch": "2025-12-18T01:52:12.715680",
        "meta_mean_motion": 15.14600967,
        "meta_eccentricity": 0.01699192,
        "meta_inclination": 82.2038,
        "meta_ra_of_asc_node": 209.565,
        "meta_arg_of_pericenter": 180.6283,
        "meta_mean_anomaly": 179.4765,
        "meta_ephemeris_type": 0,
        "meta_classification_type": "U",
        "meta_norad_cat_id": 50404,
        "meta_element_set_no": 999,
        "meta_rev_at_epoch": 21274,
        "meta_bstar": 0.0025124658,
        "meta_mean_motion_dot": 0.00067287,
        "meta_mean_motion_ddot": 0,
        "tle_line1": "1 50404U 82092ADS 25352.07792495  .00067287  00000+0  25125-2 0  9990",
        "tle_line2": "2 50404  82.2038 209.5650 0169919 180.6283 179.4765 15.14600967212742"
      },
      "geometry": {
        "type": "Point",
        "coordinates": [
          -130.9152686225003,
          68.24021926923872
        ]
      }
    },
    {
      "type": "Feature",
      "properties": {
        "norad_id": 50621,
        "name": "COSMOS 1408 DEB",
        "group": "cosmos-1408-debris",
        "lat": 22.605280765528693,
        "lon": -115.05585880375986,
        "alt_km": 378.5529733165222,
        "timestamp": "2025-12-18T14:52:08.296303+00:00",
        "meta_object_name": "COSMOS 1408 DEB",
        "meta_object_id": "1982-092ALR",
        "meta_epoch": "2025-12-18T06:29:08.544192",
        "meta_mean_motion": 15.56945936,
        "meta_eccentricity": 0.00290388,
        "meta_inclination": 82.5704,
        "meta_ra_of_asc_node": 68.4226,
        "meta_arg_of_pericenter": 132.3132,
        "meta_mean_anomaly": 228.0591,
        "meta_ephemeris_type": 0,
        "meta_classification_type": "U",
        "meta_norad_cat_id": 50621,
        "meta_element_set_no": 999,
        "meta_rev_at_epoch": 22336,
        "meta_bstar": 0.00033132969,
        "meta_mean_motion_dot": 0.00024399,
        "meta_mean_motion_ddot": 0,
        "tle_line1": "1 50621U 82092ALR 25352.27023778  .00024399  00000+0  33133-3 0  9990",
        "tle_line2": "2 50621  82.5704  68.4226 0029038 132.3132 228.0591 15.56945936223363"
      },
      "geometry": {
        "type": "Point",
        "coordinates": [
          -115.05585880375986,
          22.605280765528693
        ]
      }
    }
  ]
}